274P/Tombaugh-Tenagra,e,15.8163,81.3407,38.4714,4.374800,0.1077127,0.43925095,349.9313,01/05.0/2022,2000,g 13.0,4.0
# From MPC 81862
275P/Hermann,e,21.2753,348.7574,174.0293,5.774457,0.0710293,0.71248874,234.8728,01/05.0/2022,2000,g 17.0,4.0
# From MPEC 2020-K19
276P/Vorobjov,e,14.8102,211.3756,199.6201,5.320379,0.0803138,0.26744794,273.7162,01/05.0/2022,2000,g 11.5,4.0
# From MPEC 2021-F20
277P/LINEAR,e,16.7769,276.3359,152.3173,3.853503,0.1302928,0.50585771,48.3136,01/05.0/2022,2000,g 15.1,4.0
# From MPEC 2021-S45
278P/McNaught,e,6.6938,15.3816,237.9192,3.691177,0.1389814,0.43579934,66.7466,01/05.0/2022,2000,g 14.0,4.0
# From MPC100285
279P/La Sagra,e,5.0525,346.2334,5.8309,3.573232,0.1459191,0.39864329,291.4807,01/05.0/2022,2000,g 14.0,4.0
# From MPC 89013
280P/Larsen,e,11.7745,131.3934,104.7679,4.529906,0.1022281,0.41742221,301.0424,01/05.0/2022,2000,g 12.5,4.0
# From MPEC 2021-W31
281P/MOSS,e,4.7191,87.1798,26.6816,4.873815,0.0916011,0.17220318,324.0162,01/05.0/2022,2000,g 11.0,4.0
# From MPC133426
282P/,e,5.8116,9.2968,217.6291,4.240312,0.1128775,0.18850497,8.1696,01/05.0/2022,2000,g 13.5,2.0
# From MPEC 2021-BE3
283P/Spacewatch,e,14.4552,161.1290,22.2421,4.137970,0.1170909,0.48473161,13.9342,01/05.0/2022,2000,g 16.0,2.0
# From MPEC 2022-A21
284P/McNaught,e,11.8613,144.2629,202.4268,3.677373,0.1397647,0.37572751,15.9832,01/05.0/2022,2000,g 13.0,4.0
# From MPC 85339
285P/LINEAR,e,25.0382,185.5066,178.4351,4.507438,0.1029934,0.61852223,321.6451,01/05.0/2022,2000,g 15.0,4.0
# From MPEC 2021-O56
286P/Christensen,e,17.0457,283.9569,24.8577,4.108874,0.1183368,0.42538668,344.8941,01/05.0/2022,2000,g 14.0,4.0
# From MPC 96868
287P/Christensen,e,16.3199,139.0435,189.0176,4.163925,0.1159978,0.27102012,296.7231,01/05.0/2022,2000,g 13.5,4.0
# From MPC133426
288P/,e,3.2378,83.1479,280.3018,3.051385,0.1849092,0.20136557,349.6237,01/05.0/2022,2000,g 16.0,2.0
# From MPEC 2021-S45
289P/Blanpain,e,5.8961,68.8825,9.8508,3.046315,0.1853711,0.68560553,138.2889,01/05.0/2022,2000,g 19.0,4.0
# From MPC 95214
290P/Jager,e,20.0958,302.6868,181.9064,6.212892,0.0636449,0.62812685,184.4248,01/05.0/2022,2000,g 10.5,4.0
# From MPEC 2021-N06
291P/NEAT,e,6.2999,237.9227,173.6643,4.533260,0.1021147,0.43552471,310.4439,01/05.0/2022,2000,g 13.0,4.0
# From MPC115887
292P/Li,e,24.2712,90.9596,319.4727,6.105246,0.0653355,0.58883648,189.1584,01/05.0/2022,2000,g 12.5,4.0
# From MPEC 2021-S45
293P/Spacewatch,e,9.0571,78.4017,41.0174,3.642800,0.1417591,0.41823588,54.1292,01/05.0/2022,2000,g 14.5,4.0
# From MPEC 2020-SI8
294P/LINEAR,e,18.1436,312.4122,235.3293,3.195012,0.1725819,0.59965158,131.9948,01/05.0/2022,2000,g 15.5,4.0
# From MPC 93589
295P/LINEAR,e,21.0741,7.4356,72.8795,5.306118,0.0806378,0.61646057,226.0332,01/05.0/2022,2000,g 12.0,4.0
# From MPEC 2021-N06
296P/Garradd,e,25.2307,263.5919,350.0620,3.494998,0.1508460,0.47871807,71.5406,01/05.0/2022,2000,g 14.0,4.0
# From MPC102956
297P/Beshore,e,10.3228,97.6436,132.6691,3.446601,0.1540343,0.31980288,53.3893,01/05.0/2022,2000,g 15.0,4.0
# From MPC114609
298P/Christensen,e,7.8709,52.8225,100.6581,3.590890,0.1448442,0.38646560,70.3626,01/05.0/2022,2000,g 15.0,4.0
# From MPC101100
299P/Catalina-PANSTARRS,e,10.4714,271.6212,323.8460,4.386384,0.1072863,0.28117334,269.1236,01/05.0/2022,2000,g 11.5,4.0
# From MPC114609
300P/Catalina,e,5.6743,95.6437,222.9166,2.699711,0.2221918,0.69177202,257.5566,01/05.0/2022,2000,g 16.0,4.0
# From MPC 89014
301P/LINEAR-NEAT,e,10.3398,351.1751,193.6545,5.739412,0.0716808,0.58516716,192.7746,01/05.0/2022,2000,g 13.0,4.0
# From MPEC 2020-HN5
302P/Lemmon-PANSTARRS,e,6.0338,121.7496,208.3296,4.275089,0.1115030,0.23027606,230.9147,01/05.0/2022,2000,g 12.5,4.0
# From MPC 92278
303P/NEAT,e,7.0216,347.9721,356.9196,5.046040,0.0869517,0.51084276,229.0704,01/05.0/2022,2000,g 13.5,4.0
# From MPEC 2020-N08
304P/Ory,e,2.6069,58.9207,335.2411,3.150685,0.1762368,0.60068299,89.9689,01/05.0/2022,2000,g 16.5,4.0
# From MPC101100
305P/Skiff,e,11.6573,240.1064,147.3179,4.642670,0.0985263,0.69362312,256.8163,01/05.0/2022,2000,g 18.0,4.0
# From MPC 92278
306P/LINEAR,e,8.3114,341.3730,0.8600,3.123595,0.1785344,0.59331102,127.2903,01/05.0/2022,2000,g 19.0,4.0
# From MPC 92278
307P/LINEAR,e,4.4353,158.1643,222.1301,5.791466,0.0707166,0.67512262,181.7602,01/05.0/2022,2000,g 15.0,4.0
# From MPC109148
308P/Lagerkvist-Carsenty,e,4.8522,63.0641,333.6014,6.602038,0.0581015,0.36394200,141.4260,01/05.0/2022,2000,g 13.0,2.0
# From MPC 94284
309P/LINEAR,e,17.0237,10.1460,49.9422,4.372191,0.1078091,0.61788825,272.2040,01/05.0/2022,2000,g 15.0,4.0
# From MPC 98566
310P/Hill,e,13.1278,8.9234,31.8008,4.179294,0.1153585,0.42204432,284.1589,01/05.0/2022,2000,g 13.5,4.0
# From MPEC 2021-BE3
311P/PANSTARRS,e,4.9695,279.2173,144.5428,2.188573,0.3044126,0.11565109,138.3914,01/05.0/2022,2000,g 17.0,4.0
# From MPEC 2021-BE3
312P/NEAT,e,19.7681,144.6695,207.5899,3.467864,0.1526199,0.42788329,71.2555,01/05.0/2022,2000,g 16.0,4.0
# From MPEC 2021-S45
313P/Gibbs,e,10.9813,105.9716,254.7568,3.163347,0.1751798,0.23503576,110.2380,01/05.0/2022,2000,g 15.0,4.0
# From MPC105243
314P/Montani,e,3.9819,267.6087,214.0486,7.264711,0.0503357,0.41615389,96.4218,01/05.0/2022,2000,g  9.5,4.0
# From MPEC 2021-N06
315P/LONEOS,e,17.7464,68.8527,65.7210,4.939733,0.0897736,0.52107302,167.4506,01/05.0/2022,2000,g 11.0,4.0
# From MPC 92279
316P/LONEOS-Christensen,e,9.8314,246.5155,192.8318,4.369336,0.1079148,0.15635864,247.0652,01/05.0/2022,2000,g 13.5,4.0
# From MPEC 2020-C98
317P/WISE,e,11.9504,275.4975,334.8659,2.963445,0.1932007,0.57047991,90.0108,01/05.0/2022,2000,g 17.5,4.0
# From MPC102103
318P/McNaught-Hartley,e,17.8822,35.5497,313.2360,7.500450,0.0479814,0.67529818,108.6069,01/05.0/2022,2000,g  8.5,6.0
# From MPC 97499
319P/Catalina-McNaught,e,15.0950,111.3704,203.6788,3.566190,0.1463515,0.66659746,347.4966,01/05.0/2022,2000,g 15.0,4.0
# From MPC 96281
320P/McNaught,e,4.9084,295.9340,0.7795,3.093617,0.1811358,0.68560708,63.9209,01/05.0/2022,2000,g 20.5,4.0
# From MPC105243
321P/SOHO,e,20.0904,165.0179,172.7471,2.423469,0.2612449,0.98111313,0.0000,10/26.4624/2023,2000,g 20.0,4.0
# From MPC102103
322P/SOHO,e,11.4678,351.5270,56.8736,2.507896,0.2481646,0.97988394,0.0000,08/21.0972/2023,2000,g 19.0,4.0
# From MPEC 2016-Y36
323P/SOHO,e,5.3362,324.3811,353.0532,2.582920,0.2374312,0.98482956,0.0000,01/17.7826/2021,2000,g 20.0,4.0
# From MPEC 2021-W31
324P/LaSagra,e,21.4030,270.5896,57.5733,3.095114,0.1810044,0.15401823,44.2727,01/05.0/2022,2000,g 13.0,4.0
# From MPC114609
325P/Yang-Gao,e,16.6938,257.5605,343.6991,3.523063,0.1490471,0.59341776,347.6032,01/05.0/2022,2000,g 14.0,4.0
# From MPC103849
326P/Hill,e,2.4710,99.8094,278.6213,4.062794,0.1203558,0.31797962,272.7900,01/05.0/2022,2000,g 13.5,4.0
# From MPC 97499
327P/Van Ness,e,36.2512,173.9852,185.0505,3.561832,0.1466203,0.56314011,324.7455,01/05.0/2022,2000,g 16.0,4.0
# From MPC109148
328P/LONEOS-Tucker,e,17.6732,341.6353,30.5119,4.193318,0.1147803,0.55244152,252.6852,01/05.0/2022,2000,g 14.5,4.0
# From MPC101101
329P/LINEAR-Catalina,e,21.6829,87.6667,343.5289,5.190260,0.0833528,0.67752728,185.7047,01/05.0/2022,2000,g 13.5,4.0
# From MPC105243
330P/Catalina,e,15.6981,293.0910,188.9153,6.626294,0.0577827,0.54838186,113.1569,01/05.0/2022,2000,g 12.0,4.0
# From MPEC 2021-BE3
331P/Gibbs,e,9.7379,216.7636,184.1896,3.005009,0.1892063,0.04110716,87.0792,01/05.0/2022,2000,g 12.0,4.0
# From MPEC 2016-K18
332P/Ikeya-Murakami,e,9.3800,3.7857,152.3315,3.088925,0.1815486,0.48943725,25.3440,01/05.0/2022,2000,g 18.0,4.0
# From MPEC 2016-EI8
332P-B/Ikeya-Murakami,e,9.3805,3.8028,152.3711,3.082329,0.1821317,0.48970701,359.9699,03/17.0/2016,2000,g 19.0,4.0
# From MPEC 2016-K18
332P-C/Ikeya-Murakami,e,9.3791,3.7861,152.3228,3.088891,0.1815517,0.48944270,25.3586,01/05.0/2022,2000,g 16.5,4.0
# From MPEC 2016-ED0
332P-D/Ikeya-Murakami,e,9.3761,3.7923,152.4393,3.081138,0.1822373,0.48977814,359.9486,03/17.0/2016,2000,g 19.0,4.0
# From MPEC 2016-ED0
332P-E/Ikeya-Murakami,e,9.3774,3.8228,152.2825,3.079877,0.1823493,0.48922008,359.9889,03/17.0/2016,2000,g 21.0,4.0
# From MPEC 2016-ED0
332P-F/Ikeya-Murakami,e,9.5293,3.4757,152.8203,3.163214,0.1751908,0.49918860,359.8501,03/17.0/2016,2000,g 21.0,4.0
# From MPEC 2016-ED0
332P-G/Ikeya-Murakami,e,9.2523,3.6955,154.4000,3.050519,0.1849880,0.49200362,359.9006,03/19.0/2016,2000,g 19.0,4.0
# From MPC100285
332P-H/Ikeya-Murakami,e,9.3796,3.7858,152.3235,3.089076,0.1815353,0.48947793,25.2913,01/05.0/2022,2000,g 19.0,4.0
# From MPEC 2016-ED0
332P-I/Ikeya-Murakami,e,9.3791,3.8048,152.3297,3.081767,0.1821815,0.48955490,359.9360,03/17.0/2016,2000,g 20.5,2.0
# From MPEC 2016-EI8
332P-J/Ikeya-Murakami,e,9.4296,3.6729,152.7712,3.115165,0.1792596,0.49429435,359.8613,03/17.0/2016,2000,g 20.5,2.0
# From MPEC 2020-L06
333P/LINEAR,e,131.9877,115.6334,25.9926,4.219967,0.1136948,0.73668646,239.5798,01/05.0/2022,2000,g 15.0,4.0
# From MPC115888
334P/NEAT,e,20.4158,90.6428,90.1087,6.838456,0.0551146,0.35094830,92.2881,01/05.0/2022,2000,g 10.5,4.0
# From MPEC 2021-U31
335P/Gibbs,e,7.2934,330.8475,162.3045,3.577286,0.1456711,0.54603873,328.0961,01/05.0/2022,2000,g 17.0,4.0
# From MPC105244
336P/McNaught,e,17.8317,298.2439,308.7529,5.034023,0.0872632,0.44458571,156.9463,01/05.0/2022,2000,g 13.5,4.0
# From MPEC 2021-N06
337P/WISE,e,15.3709,106.0633,161.0209,3.286261,0.1654440,0.49665951,330.6930,01/05.0/2022,2000,g 17.0,4.0
# From MPC104796
338P/McNaught,e,25.3844,9.7957,4.4288,3.895865,0.1281735,0.41180269,239.4082,01/05.0/2022,2000,g 12.0,4.0
# From MPC101101
339P/Gibbs,e,5.7333,172.7252,27.4955,3.697815,0.1386074,0.63545737,276.4101,01/05.0/2022,2000,g 17.0,4.0
# From MPEC 2021-UA9
340P/Boattini,e,2.0787,291.7028,35.9031,4.250808,0.1124597,0.28085846,210.3368,01/05.0/2022,2000,g 14.3,4.0
# From MPEC 2021-BE3
341P/Gibbs,e,3.7965,29.9712,312.2024,4.292335,0.1108316,0.41567059,226.6820,01/05.0/2022,2000,g 12.5,4.0
# From MPC101101
342P/SOHO,e,11.6662,27.7043,73.2675,3.042455,0.1857239,0.98276626,0.0000,10/19.3008/2021,2000,g  9.0,4.0
# From MPC109148
